{"type": "FeatureCollection", "features": [{"type": "Feature", "properties": {"norad_id": 25590, "name": "COSMOS 2361", "group": "musson", "lat": 11.517659416476835, "lon": 164.82135346496074, "alt_km": 995.3464184589238, "timestamp": "2025-12-09T18:55:17.501684+00:00", "meta": {"OBJECT_NAME": "COSMOS 2361", "OBJECT_ID": "1998-076A", "EPOCH": "2025-12-09T11:40:26.349312", "MEAN_MOTION": 13.73216995, "ECCENTRICITY": 0.00300621, "INCLINATION": 82.9338, "RA_OF_ASC_NODE": 346.4929, "ARG_OF_PERICENTER": 275.0544, "MEAN_ANOMALY": 201.5316, "EPHEMERIS_TYPE": 0, "CLASSIFICATION_TYPE": "U", "NORAD_CAT_ID": 25590, "ELEMENT_SET_NO": 999, "REV_AT_EPOCH": 35066, "BSTAR": 9.0441851e-05, "MEAN_MOTION_DOT": 9.9e-07, "MEAN_MOTION_DDOT": 0}, "tle": {"line1": "1 25590U 98076A   25343.48641608  .00000099  00000+0  90442-4 0  9995", "line2": "2 25590  82.9338 346.4929 0030062 275.0544 201.5316 13.73216995350665"}}, "geometry": {"type": "Point", "coordinates": [164.82135346496074, 11.517659416476835]}}, {"type": "Feature", "properties": {"norad_id": 26818, "name": "COSMOS 2378", "group": "musson", "lat": -51.07665950403827, "lon": -169.24323672916066, "alt_km": 969.1133203115123, "timestamp": "2025-12-09T18:55:17.501705+00:00", "meta": {"OBJECT_NAME": "COSMOS 2378", "OBJECT_ID": "2001-023A", "EPOCH": "2025-12-09T11:20:25.595808", "MEAN_MOTION": 13.74141611, "ECCENTRICITY": 0.00322219, "INCLINATION": 82.9273, "RA_OF_ASC_NODE": 2.1477, "ARG_OF_PERICENTER": 214.1503, "MEAN_ANOMALY": 255.5383, "EPHEMERIS_TYPE": 0, "CLASSIFICATION_TYPE": "U", "NORAD_CAT_ID": 26818, "ELEMENT_SET_NO": 999, "REV_AT_EPOCH": 22878, "BSTAR": 6.2265285e-05, "MEAN_MOTION_DOT": 7.4e-07, "MEAN_MOTION_DDOT": 0}, "tle": {"line1": "1 26818U 01023A   25343.47251847  .00000074  00000+0  62265-4 0  9991", "line2": "2 26818  82.9273   2.1477 0032221 214.1503 255.5383 13.74141611228782"}}, "geometry": {"type": "Point", "coordinates": [-169.24323672916066, -51.07665950403827]}}, {"type": "Feature", "properties": {"norad_id": 27436, "name": "COSMOS 2389", "group": "musson", "lat": 66.53066965423365, "lon": -34.27065816979649, "alt_km": 939.5539997583264, "timestamp": "2025-12-09T18:55:17.501719+00:00", "meta": {"OBJECT_NAME": "COSMOS 2389", "OBJECT_ID": "2002-026A", "EPOCH": "2025-12-09T15:56:16.689984", "MEAN_MOTION": 13.75154135, "ECCENTRICITY": 0.00476882, "INCLINATION": 82.95, "RA_OF_ASC_NODE": 309.2617, "ARG_OF_PERICENTER": 69.0971, "MEAN_ANOMALY": 103.4315, "EPHEMERIS_TYPE": 0, "CLASSIFICATION_TYPE": "U", "NORAD_CAT_ID": 27436, "ELEMENT_SET_NO": 999, "REV_AT_EPOCH": 18106, "BSTAR": 9.1192794e-05, "MEAN_MOTION_DOT": 1.04e-06, "MEAN_MOTION_DDOT": 0}, "tle": {"line1": "1 27436U 02026A   25343.66408206  .00000104  00000+0  91193-4 0  9992", "line2": "2 27436  82.9500 309.2617 0047688  69.0971 103.4315 13.75154135181069"}}, "geometry": {"type": "Point", "coordinates": [-34.27065816979649, 66.53066965423365]}}, {"type": "Feature", "properties": {"norad_id": 27818, "name": "COSMOS 2398", "group": "musson", "lat": 48.73867934069698, "lon": -77.01636585260846, "alt_km": 978.4947269319064, "timestamp": "2025-12-09T18:55:17.501731+00:00", "meta": {"OBJECT_NAME": "COSMOS 2398", "OBJECT_ID": "2003-023A", "EPOCH": "2025-12-09T14:16:24.425760", "MEAN_MOTION": 13.72385218, "ECCENTRICITY": 0.00324739, "INCLINATION": 82.9483, "RA_OF_ASC_NODE": 275.0158, "ARG_OF_PERICENTER": 120.2105, "MEAN_ANOMALY": 53.1442, "EPHEMERIS_TYPE": 0, "CLASSIFICATION_TYPE": "U", "NORAD_CAT_ID": 27818, "ELEMENT_SET_NO": 999, "REV_AT_EPOCH": 12773, "BSTAR": 9.6723451e-05, "MEAN_MOTION_DOT": 1.04e-06, "MEAN_MOTION_DDOT": 0}, "tle": {"line1": "1 27818U 03023A   25343.59472715  .00000104  00000+0  96723-4 0  9996", "line2": "2 27818  82.9483 275.0158 0032473 120.2105  53.1442 13.72385218127739"}}, "geometry": {"type": "Point", "coordinates": [-77.01636585260846, 48.73867934069698]}}, {"type": "Feature", "properties": {"norad_id": 28380, "name": "COSMOS 2407", "group": "musson", "lat": -23.92079521036274, "lon": 38.21926285116762, "alt_km": 1005.5554946093534, "timestamp": "2025-12-09T18:55:17.501742+00:00", "meta": {"OBJECT_NAME": "COSMOS 2407", "OBJECT_ID": "2004-028A", "EPOCH": "2025-12-09T14:37:11.798976", "MEAN_MOTION": 13.76313189, "ECCENTRICITY": 0.00404244, "INCLINATION": 82.9611, "RA_OF_ASC_NODE": 215.2104, "ARG_OF_PERICENTER": 63.3371, "MEAN_ANOMALY": 332.8285, "EPHEMERIS_TYPE": 0, "CLASSIFICATION_TYPE": "U", "NORAD_CAT_ID": 28380, "ELEMENT_SET_NO": 999, "REV_AT_EPOCH": 7380, "BSTAR": 8.183739e-05, "MEAN_MOTION_DOT": 9.6e-07, "MEAN_MOTION_DDOT": 0}, "tle": {"line1": "1 28380U 04028A   25343.60916434  .00000096  00000+0  81837-4 0  9990", "line2": "2 28380  82.9611 215.2104 0040424  63.3371 332.8285 13.76313189 73803"}}, "geometry": {"type": "Point", "coordinates": [38.21926285116762, -23.92079521036274]}}, {"type": "Feature", "properties": {"norad_id": 28521, "name": "COSMOS 2414", "group": "musson", "lat": -15.92862913177444, "lon": -175.1324103483658, "alt_km": 969.3351851540147, "timestamp": "2025-12-09T18:55:17.501753+00:00", "meta": {"OBJECT_NAME": "COSMOS 2414", "OBJECT_ID": "2005-002A", "EPOCH": "2025-12-09T12:04:42.141792", "MEAN_MOTION": 13.8790242, "ECCENTRICITY": 0.0040705, "INCLINATION": 82.9495, "RA_OF_ASC_NODE": 187.1073, "ARG_OF_PERICENTER": 148.7649, "MEAN_ANOMALY": 211.5945, "EPHEMERIS_TYPE": 0, "CLASSIFICATION_TYPE": "U", "NORAD_CAT_ID": 28521, "ELEMENT_SET_NO": 999, "REV_AT_EPOCH": 5750, "BSTAR": 8.3686963e-05, "MEAN_MOTION_DOT": 1.16e-06, "MEAN_MOTION_DDOT": 0}, "tle": {"line1": "1 28521U 05002A   25343.50326553  .00000116  00000+0  83687-4 0  9994", "line2": "2 28521  82.9495 187.1073 0040705 148.7649 211.5945 13.87902420 57509"}}, "geometry": {"type": "Point", "coordinates": [-175.1324103483658, -15.92862913177444]}}, {"type": "Feature", "properties": {"norad_id": 32052, "name": "COSMOS 2429", "group": "musson", "lat": -71.97210170162555, "lon": -172.26968403402483, "alt_km": 1014.172341972614, "timestamp": "2025-12-09T18:55:17.501763+00:00", "meta": {"OBJECT_NAME": "COSMOS 2429", "OBJECT_ID": "2007-038A", "EPOCH": "2025-12-09T10:42:32.023872", "MEAN_MOTION": 13.75148904, "ECCENTRICITY": 0.00393967, "INCLINATION": 82.9802, "RA_OF_ASC_NODE": 345.737, "ARG_OF_PERICENTER": 46.8383, "MEAN_ANOMALY": 313.6055, "EPHEMERIS_TYPE": 0, "CLASSIFICATION_TYPE": "U", "NORAD_CAT_ID": 32052, "ELEMENT_SET_NO": 999, "REV_AT_EPOCH": 91557, "BSTAR": 7.3832477e-05, "MEAN_MOTION_DOT": 8.6e-07, "MEAN_MOTION_DDOT": 0}, "tle": {"line1": "1 32052U 07038A   25343.44620398  .00000086  00000+0  73832-4 0  9993", "line2": "2 32052  82.9802 345.7370 0039396  46.8383 313.6055 13.75148904915576"}}, "geometry": {"type": "Point", "coordinates": [-172.26968403402483, -71.97210170162555]}}, {"type": "Feature", "properties": {"norad_id": 35635, "name": "COSMOS 2454", "group": "musson", "lat": 12.473501651929123, "lon": 172.44959978971985, "alt_km": 924.6246484661351, "timestamp": "2025-12-09T18:55:17.501774+00:00", "meta": {"OBJECT_NAME": "COSMOS 2454", "OBJECT_ID": "2009-039A", "EPOCH": "2025-12-09T12:02:36.218976", "MEAN_MOTION": 13.89927943, "ECCENTRICITY": 0.00204834, "INCLINATION": 82.9555, "RA_OF_ASC_NODE": 171.0995, "ARG_OF_PERICENTER": 82.3706, "MEAN_ANOMALY": 297.333, "EPHEMERIS_TYPE": 0, "CLASSIFICATION_TYPE": "U", "NORAD_CAT_ID": 35635, "ELEMENT_SET_NO": 999, "REV_AT_EPOCH": 83105, "BSTAR": 5.9777279e-05, "MEAN_MOTION_DOT": 9e-07, "MEAN_MOTION_DDOT": 0}, "tle": {"line1": "1 35635U 09039A   25343.50180809  .00000090  00000+0  59777-4 0  9998", "line2": "2 35635  82.9555 171.0995 0020483  82.3706 297.3330 13.89927943831052"}}, "geometry": {"type": "Point", "coordinates": [172.44959978971985, 12.473501651929123]}}, {"type": "Feature", "properties": {"norad_id": 36519, "name": "COSMOS 2463", "group": "musson", "lat": -65.8522345041338, "lon": -135.1231004212273, "alt_km": 984.2488944764109, "timestamp": "2025-12-09T18:55:17.501785+00:00", "meta": {"OBJECT_NAME": "COSMOS 2463", "OBJECT_ID": "2010-017A", "EPOCH": "2025-12-09T12:59:58.877088", "MEAN_MOTION": 13.71648838, "ECCENTRICITY": 0.00348604, "INCLINATION": 82.9616, "RA_OF_ASC_NODE": 29.0627, "ARG_OF_PERICENTER": 297.2558, "MEAN_ANOMALY": 172.124, "EPHEMERIS_TYPE": 0, "CLASSIFICATION_TYPE": "U", "NORAD_CAT_ID": 36519, "ELEMENT_SET_NO": 999, "REV_AT_EPOCH": 78193, "BSTAR": 7.5710332e-05, "MEAN_MOTION_DOT": 8.3e-07, "MEAN_MOTION_DDOT": 0}, "tle": {"line1": "1 36519U 10017A   25343.54165367  .00000083  00000+0  75710-4 0  9991", "line2": "2 36519  82.9616  29.0627 0034860 297.2558 172.1240 13.71648838781937"}}, "geometry": {"type": "Point", "coordinates": [-135.1231004212273, -65.8522345041338]}}]}